NORAD_CAT_ID,OBJECT_NAME,OBJECT_TYPE,EPOCH,MEAN_MOTION,ECCENTRICITY,INCLINATION,RA_OF_ASC_NODE,ARG_OF_PERICENTER,MEAN_ANOMALY,BSTAR,MEAN_MOTION_DOT,MEAN_MOTION_DDOT,TLE_LINE0,TLE_LINE1,TLE_LINE2,SEMIMAJOR_AXIS,PERIOD,APOGEE,PERIGEE,DECAYED
52276.0,STARLINK-3778,PAYLOAD,2022-10-03 05:03:11,15.08849792,0.0001872,53.219,336.2141,40.9115,319.2017,2.6125e-06,-2.47e-06,0.0,0 STARLINK-3778,1 52276U 22041R   22276.21055555 -.00000247  00000-0  26125-5 0  9993,2 52276  53.2190 336.2141 0001872  40.9115 319.2017 15.08849792 26354,6917.85,95.437,541.01,538.42,0.0
52276.0,STARLINK-3778,PAYLOAD,2022-10-03 11:24:43,15.088590599999998,0.0001763,53.2198,335.0256,54.3771,305.7386,0.00011482,1.541e-05,0.0,0 STARLINK-3778,1 52276U 22041R   22276.47550542  .00001541  00000-0  11482-3 0  9992,2 52276  53.2198 335.0256 0001763  54.3771 305.7386 15.08859060 25179,6917.821999999999,95.436,540.9069999999998,538.4680000000002,0.0
52276.0,STARLINK-3778,PAYLOAD,2022-10-03 20:57:02,15.08846971,0.0001872,53.2184,333.2409,45.1781,314.9363,0.00022174,3.243e-05,0.0,0 STARLINK-3778,1 52276U 22041R   22276.87294961  .00003243  00000-0  22174-3 0  9997,2 52276  53.2184 333.2409 0001872  45.1781 314.9363 15.08846971 26450,6917.859,95.437,541.019,538.429,0.0
52276.0,STARLINK-3778,PAYLOAD,2022-10-04 11:15:31,15.088371300000002,0.0001712,53.2186,330.5653,45.4214,314.6917,0.00016821,2.39e-05,0.0,0 STARLINK-3778,1 52276U 22041R   22277.46911296  .00002390  00000-0  16821-3 0  9994,2 52276  53.2186 330.5653 0001712  45.4214 314.6917 15.08837130 25324,6917.889,95.438,540.939,538.57,0.0
52276.0,STARLINK-3778,PAYLOAD,2022-10-04 20:47:50,15.08837295,0.0001962,53.2188,328.7807,40.4803,319.6335,9.2978e-05,1.192e-05,0.0,0 STARLINK-3778,1 52276U 22041R   22277.86655554  .00001192  00000-0  92978-4 0  9997,2 52276  53.2188 328.7807 0001962  40.4803 319.6335 15.08837295 25389,6917.889,95.438,541.111,538.396,0.0
52276.0,STARLINK-3778,PAYLOAD,2022-10-05 03:09:23,15.08834208,0.0001858,53.2187,327.5914,41.4988,318.6145,4.0892e-06,-2.23e-06,0.0,0 STARLINK-3778,1 52276U 22041R   22278.13151978 -.00000223  00000-0  40892-5 0  9993,2 52276  53.2187 327.5914 0001858  41.4988 318.6145 15.08834208 26642,6917.898,95.438,541.048,538.4780000000002,0.0
52276.0,STARLINK-3778,PAYLOAD,2022-10-05 09:30:55,15.08841839,0.0001949,53.2187,326.4017,44.1569,315.9578,-0.00011431,-2.107e-05,0.0,0 STARLINK-3778,1 52276U 22041R   22278.39647882 -.00002107  00000-0 -11431-3 0  9994,2 52276  53.2187 326.4017 0001949  44.1569 315.9578 15.08841839 25467,6917.875,95.437,541.0880000000002,538.391,0.0
52276.0,STARLINK-3778,PAYLOAD,2022-10-06 09:21:43,15.08834504,0.0002,53.218,321.9406,45.8122,314.3034,-6.394199999999999e-05,-1.306e-05,0.0,0 STARLINK-3778,1 52276U 22041R   22279.39008433 -.00001306  00000-0 -63942-4 0  9993,2 52276  53.2180 321.9406 0002000  45.8122 314.3034 15.08834504 25612,6917.897,95.438,541.146,538.379,0.0
52276.0,STARLINK-3778,PAYLOAD,2022-10-06 20:29:24,15.08842558,0.0001784,53.218,319.8597,45.9217,314.1921,0.00010126,1.324e-05,0.0,0 STARLINK-3778,1 52276U 22041R   22279.85375485  .00001324  00000-0  10126-3 0  9991,2 52276  53.2180 319.8597 0001784  45.9217 314.1921 15.08842558 25681,6917.873000000001,95.437,540.972,538.503,0.0
52276.0,STARLINK-3778,PAYLOAD,2022-10-07 09:12:29,15.08841504,0.0002024,53.2192,317.4803,47.1363,312.9799,0.00012476,1.698e-05,0.0,0 STARLINK-3778,1 52276U 22041R   22280.38367723  .00001698  00000-0  12476-3 0  9991,2 52276  53.2192 317.4803 0002024  47.1363 312.9799 15.08841504 25760,6917.876,95.437,541.141,538.341,0.0
52276.0,STARLINK-3778,PAYLOAD,2022-10-08 09:03:17,15.08828363,0.0001909999999999,53.2183,313.0208,38.7055,321.4074,-7.168300000000001e-06,-4.02e-06,0.0,0 STARLINK-3778,1 52276U 22041R   22281.37729080 -.00000402  00000-0 -71683-5 0  9990,2 52276  53.2183 313.0208 0001910  38.7055 321.4074 15.08828363 27130,6917.916,95.438,541.102,538.46,0.0
52276.0,STARLINK-3778,PAYLOAD,2022-10-08 12:14:04,15.08830441,0.0001943,53.2188,312.4264,40.9045,319.2093,-1.5466e-05,-5.34e-06,0.0,0 STARLINK-3778,1 52276U 22041R   22281.50977118 -.00000534  00000-0 -15466-4 0  9994,2 52276  53.2188 312.4264 0001943  40.9045 319.2093 15.08830441 25932,6917.91,95.438,541.119,538.43,0.0
52276.0,STARLINK-3778,PAYLOAD,2022-10-08 18:35:36,15.08836463,0.0001925,53.2182,311.2369,39.1668,320.9463,6.0845e-05,6.8e-06,0.0,0 STARLINK-3778,1 52276U 22041R   22281.77472662  .00000680  00000-0  60845-4 0  9998,2 52276  53.2182 311.2369 0001925  39.1668 320.9463 15.08836463 27190,6917.891,95.438,541.0880000000002,538.425,0.0
52276.0,STARLINK-3778,PAYLOAD,2022-10-09 08:54:04,15.08839512,0.0001966,53.2186,308.5603,44.7248,315.3902,3.4775e-05,2.65e-06,0.0,0 STARLINK-3778,1 52276U 22041R   22282.37088704  .00000265  00000-0  34775-4 0  9997,2 52276  53.2186 308.5603 0001966  44.7248 315.3902 15.08839512 26064,6917.882,95.438,541.107,538.387,0.0
52276.0,STARLINK-3778,PAYLOAD,2022-10-09 18:26:22,15.08852415,0.0002023,53.2191,306.776,45.5089,314.6068,0.00010754,1.424e-05,0.0,0 STARLINK-3778,1 52276U 22041R   22282.76831638  .00001424  00000-0  10754-3 0  9990,2 52276  53.2191 306.7760 0002023  45.5089 314.6068 15.08852415 26120,6917.842,95.437,541.107,538.308,0.0
52276.0,STARLINK-3778,PAYLOAD,2022-10-10 02:23:18,15.08842105,0.000187,53.2188,305.289,36.5904,323.5215,0.00013622,1.881e-05,0.0,0 STARLINK-3778,1 52276U 22041R   22283.09952096  .00001881  00000-0  13622-3 0  9993,2 52276  53.2188 305.2890 0001870  36.5904 323.5215 15.08842105 27397,6917.874,95.437,541.033,538.445,0.0
52276.0,STARLINK-3778,PAYLOAD,2022-10-10 08:44:51,15.08837953,0.0001925,53.2179,304.099,34.3618,325.7498,8.054899999999999e-05,9.94e-06,0.0,0 STARLINK-3778,1 52276U 22041R   22283.36448446  .00000994  00000-0  80549-4 0  9999,2 52276  53.2179 304.0990 0001925  34.3618 325.7498 15.08837953 26216,6917.887,95.438,541.0830000000002,538.42,0.0
52276.0,STARLINK-3778,PAYLOAD,2022-10-10 18:17:11,15.08815319,0.0001885,53.2171,302.3146,35.7944,324.3174,0.00023973,3.527e-05,0.0,0 STARLINK-3778,1 52276U 22041R   22283.76193705  .00003527  00000-0  23973-3 0  9990,2 52276  53.2171 302.3146 0001885  35.7944 324.3174 15.08815319 26278,6917.956,95.439,541.125,538.5169999999998,0.0
52276.0,STARLINK-3778,PAYLOAD,2022-10-11 08:35:38,15.08839243,0.0001986,53.2185,299.6394,41.3455,318.7687,9.7844e-05,1.269e-05,0.0,0 STARLINK-3778,1 52276U 22041R   22284.35808623  .00001269  00000-0  97844-4 0  9998,2 52276  53.2185 299.6394 0001986  41.3455 318.7687 15.08839243 26366,6917.8830000000025,95.438,541.122,538.374,0.0
52276.0,STARLINK-3778,PAYLOAD,2022-10-12 02:04:53,15.08836617,0.0001954,53.2182,296.3681,39.7333,320.3802,-1.4436e-05,-5.18e-06,0.0,0 STARLINK-3778,1 52276U 22041R   22285.08673040 -.00000518  00000-0 -14436-4 0  9996,2 52276  53.2182 296.3681 0001954  39.7333 320.3802 15.08836617 27694,6917.891,95.438,541.107,538.404,0.0
52276.0,STARLINK-3778,PAYLOAD,2022-10-12 08:26:26,15.08833795,0.0002025,53.218,295.1790000000001,39.2935,320.8204,2.5226e-05,1.13e-06,0.0,0 STARLINK-3778,1 52276U 22041R   22285.35169180  .00000113  00000-0  25226-4 0  9999,2 52276  53.2180 295.1790 0002025  39.2935 320.8204 15.08833795 26518,6917.899,95.438,541.165,538.363,0.0
52276.0,STARLINK-3778,PAYLOAD,2022-10-12 17:58:44,15.08843259,0.0002021999999999,53.2182,293.3949,40.5871,319.5271,6.7748e-05,7.9e-06,0.0,0 STARLINK-3778,1 52276U 22041R   22285.74912461  .00000790  00000-0  67748-4 0  9996,2 52276  53.2182 293.3949 0002022  40.5871 319.5271 15.08843259 26578,6917.87,95.437,541.134,538.337,0.0
52276.0,STARLINK-3778,PAYLOAD,2022-10-13 09:52:35,15.08843732,0.0001881,53.2178,290.4194,44.4328,315.6815,8.6973e-07,-2.74e-06,0.0,0 STARLINK-3778,1 52276U 22041R   22286.41152694 -.00000274  00000-0  86973-6 0  9996,2 52276  53.2178 290.4194 0001881  44.4328 315.6815 15.08843732 26673,6917.869000000002,95.437,541.035,538.433,0.0
52276.0,STARLINK-3778,PAYLOAD,2022-10-13 17:49:31,15.08844103,0.00021,53.2186,288.9322,44.2128,315.9032,0.00016114,2.278e-05,0.0,0 STARLINK-3778,1 52276U 22041R   22286.74272207  .00002278  00000-0  16114-3 0  9997,2 52276  53.2186 288.9322 0002100  44.2128 315.9032 15.08844103 26721,6917.868,95.437,541.186,538.28,0.0
52276.0,STARLINK-3778,PAYLOAD,2022-10-14 04:57:13,15.0884107,0.0001996999999999,53.2185,286.8522,47.8911,312.2251,0.00010752,1.423e-05,0.0,0 STARLINK-3778,1 52276U 22041R   22287.20640450  .00001423  00000-0  10752-3 0  9991,2 52276  53.2185 286.8522 0001997  47.8911 312.2251 15.08841070 28018,6917.877,95.437,541.124,538.361,0.0
52276.0,STARLINK-3778,PAYLOAD,2022-10-14 11:18:46,15.08831784,0.0001959,53.2178,285.6627,42.6006,317.5138,2.4416e-05,1e-06,0.0,0 STARLINK-3778,1 52276U 22041R   22287.47137340  .00000100  00000-0  24416-4 0  9993,2 52276  53.2178 285.6627 0001959  42.6006 317.5138 15.08831784 26830,6917.906,95.438,541.126,538.415,0.0
52276.0,STARLINK-3778,PAYLOAD,2022-10-15 03:12:37,15.08837897,0.0001618,53.219,282.6879,41.6432,318.4683,6.1111e-05,6.85e-06,0.0,0 STARLINK-3778,1 52276U 22041R   22288.13376714  .00000685  00000-0  61111-4 0  9998,2 52276  53.2190 282.6879 0001618  41.6432 318.4683 15.08837897 28157,6917.887,95.438,540.871,538.633,0.0
52276.0,STARLINK-3778,PAYLOAD,2022-10-15 11:09:32,15.0884478,0.0001991,53.2175,281.2026,39.6394,320.4743,4.2225e-05,3.84e-06,0.0,0 STARLINK-3778,1 52276U 22041R   22288.46496470  .00000384  00000-0  42225-4 0  9997,2 52276  53.2175 281.2026 0001991  39.6394 320.4743 15.08844780 26985,6917.866,95.437,541.1080000000002,538.3530000000002,0.0
52276.0,STARLINK-3778,PAYLOAD,2022-10-16 07:49:34,15.088307999999998,0.0002139,53.2186,277.3344,49.2676,310.8501,-7.8852e-05,-1.543e-05,0.0,0 STARLINK-3778,1 52276U 22041R   22289.32609689 -.00001543  00000-0 -78852-4 0  9996,2 52276  53.2186 277.3344 0002139  49.2676 310.8501 15.08830800 27110,6917.909000000002,95.438,541.253,538.294,0.0
